ONEWEB-0156             
1 48052U 21025L   24233.63079165 -.00000209  00000+0 -60798-3 0  9995
2 48052  87.8876  92.6695 0001813  80.1615 279.9719 13.13469946166201
ONEWEB-0161             
1 48053U 21025M   24233.60382660  .00000338  00000+0  88956-3 0  9997
2 48053  87.8875  92.6844 0001741  88.1901 271.9427 13.13470766166135
ONEWEB-0158             
1 48054U 21025N   24233.56572486 -.00000273  00000+0 -78163-3 0  9999
2 48054  87.8874  92.6801 0001786  76.6667 283.4661 13.13471457166257
ONEWEB-0157             
1 48055U 21025P   24233.58953975  .00000145  00000+0  36086-3 0  9992
2 48055  87.8874  92.6901 0001917  83.3325 276.8022 13.13471221166190
ONEWEB-0162             
1 48056U 21025Q   24233.62920997 -.00000140  00000+0 -41753-3 0  9990
2 48056  87.8871  92.6769 0001823  79.9892 280.1443 13.13469689166174
ONEWEB-0155             
1 48057U 21025R   24233.57366723 -.00000204  00000+0 -59455-3 0  9995
2 48057  87.8870  92.6995 0001744  89.9435 270.1894 13.13472270166305
ONEWEB-0149             
1 48058U 21025S   24233.59430319  .00000259  00000+0  67353-3 0  9995
2 48058  87.8874  92.6916 0001959  77.5156 282.6192 13.13471076166115
ONEWEB-0148             
1 48059U 21025T   24233.55938954 -.00000274  00000+0 -78399-3 0  9991
2 48059  87.8877  92.7112 0002391  81.1721 278.9679 13.13468620166230
ONEWEB-0160             
1 48060U 21025U   24233.57524581 -.00000171  00000+0 -50246-3 0  9999
2 48060  87.8875  92.7037 0001388  49.8351 310.2900 13.13471605166189
ONEWEB-0163             
1 48061U 21025V   24233.56096344 -.00000550  00000+0 -15419-2 0  9993
2 48061  87.8873  92.6976 0001941  89.3702 270.7649 13.13469045166302
ONEWEB-0159             
1 48062U 21025W   24233.62604509 -.00000126  00000+0 -38072-3 0  9999
2 48062  87.8872  92.6673 0001922  83.7213 276.4135 13.13468451166235
ONEWEB-0164             
1 48063U 21025X   24233.60858665  .00000307  00000+0  80544-3 0  9992
2 48063  87.8874  92.6811 0001596  80.8849 279.2461 13.13469306166213
ONEWEB-0167             
1 48064U 21025Y   24233.56175912 -.00000279  00000+0 -79959-3 0  9993
2 48064  87.8875  92.7029 0001882  87.0632 273.0712 13.13469694166192
ONEWEB-0166             
1 48065U 21025Z   24233.58318567 -.00000007  00000+0 -54482-4 0  9995
2 48065  87.8870  92.6794 0001917  80.1440 279.9905 13.13471322166275
ONEWEB-0151             
1 48066U 21025AA  24233.58477843  .00000095  00000+0  22488-3 0  9994
2 48066  87.8872  92.6942 0001596  83.2958 276.8352 13.13470013166216
ONEWEB-0170             
1 48067U 21025AB  24233.59270913  .00000256  00000+0  66716-3 0  9996
2 48067  87.8874  92.6955 0001131  76.9263 283.1992 13.13471765166177
ONEWEB-0168             
1 48068U 21025AC  24233.57842223 -.00000084  00000+0 -26438-3 0  9992
2 48068  87.8875  92.6700 0001763  82.5806 277.5523 13.13471594166182
ONEWEB-0173             
1 48069U 21025AD  24233.57048441 -.00000433  00000+0 -12207-2 0  9999
2 48069  87.8874  92.6811 0001798  97.0654 263.0679 13.13470384166420
ONEWEB-0171             
1 48070U 21025AE  24233.60698447  .00000284  00000+0  74193-3 0  9997
2 48070  87.8876  92.7100 0001628  84.3665 275.7650 13.13471520166241
ONEWEB-0172             
1 48071U 21025AF  24233.58635821  .00000123  00000+0  30104-3 0  9998
2 48071  87.8876  92.6804 0001663  87.4577 272.6742 13.13471702167136
ONEWEB-0174             
1 48072U 21025AG  24233.56889916 -.00000286  00000+0 -81697-3 0  9998
2 48072  87.8873  92.6981 0001890  79.9620 280.1722 13.13471605166455
ONEWEB-0175             
1 48073U 21025AH  24233.59747201  .00000232  00000+0  60089-3 0  9993
2 48073  87.8870  92.6772 0001370  85.5691 274.5595 13.13470649166110
ONEWEB-0177             
1 48074U 21025AJ  24233.61017695  .00000265  00000+0  68961-3 0  9997
2 48074  87.8871  92.6836 0001996  90.0439 270.0918 13.13469267166303
ONEWEB-0178             
1 48075U 21025AK  24233.62776107 -.00000461  00000+0 -12984-2 0  9992
2 48075  87.8879  92.7020 0001872  87.9594 272.1749 13.13469913166356
ONEWEB-0108             
1 48076U 21025AL  24233.58794631  .00000179  00000+0  45502-3 0  9997
2 48076  87.8871  92.6850 0001831  74.7303 285.4028 13.13471450166273
ONEWEB-0169             
1 48077U 21025AM  24233.61968918  .00000145  00000+0  36201-3 0  9992
2 48077  87.8875  92.6901 0001880  73.7457 286.3879 13.13469556164937
ONEWEB-0176             
1 48210U 21031A   24233.52896022  .00000144  00000+0  35284-3 0  9993
2 48210  87.8924  62.0949 0001686  88.1164 272.0159 13.14502404160865
ONEWEB-0184             
1 48211U 21031B   24233.57811803  .00000083  00000+0  18851-3 0  9996
2 48211  87.8918  62.0663 0001142 123.3121 236.8118 13.14503303160844
ONEWEB-0179             
1 48212U 21031C   24233.54798782 -.00000166  00000+0 -48195-3 0  9992
2 48212  87.8924  62.0777 0001802  90.0353 270.0983 13.14503230160881
ONEWEB-0180             
1 48213U 21031D   24233.58130273  .00000139  00000+0  34103-3 0  9994
2 48213  87.8919  62.0675 0001869  92.3303 267.8041 13.14504945160777
ONEWEB-0218             
1 48214U 21031E   24233.52737101  .00000170  00000+0  42318-3 0  9994
2 48214  87.8920  62.0798 0001468 127.0820 233.0444 13.14503598160923
ONEWEB-0209             
1 48215U 21031F   24233.59238866  .00000294  00000+0  75933-3 0  9992
2 48215  87.8922  62.1024 0001901  92.1441 267.9906 13.14504408160933
ONEWEB-0198             
1 48216U 21031G   24233.57652593 -.00000070  00000+0 -22358-3 0  9995
2 48216  87.8919  62.1100 0001703 101.5867 258.5454 13.14503842161040
ONEWEB-0189             
1 48217U 21031H   24233.58922364  .00000215  00000+0  54468-3 0  9999
2 48217  87.8920  62.0826 0001801 103.5637 256.5693 13.14502639160789
ONEWEB-0196             
1 48218U 21031J   24233.56701723 -.00000122  00000+0 -36250-3 0  9990
2 48218  87.8922  62.0919 0001665  90.2065 269.9256 13.14501798160788
ONEWEB-0183             
1 48219U 21031K   24233.54164173 -.00000101  00000+0 -30816-3 0  9990
2 48219  87.8922  62.1125 0001883  86.7458 273.3887 13.14503594160872
ONEWEB-0185             
1 48220U 21031L   24233.56781381 -.00000148  00000+0 -43272-3 0  9991
2 48220  87.8922  62.0794 0001902  89.3644 270.7704 13.14502804160808
ONEWEB-0187             
1 48221U 21031M   24233.53768247 -.00000014  00000+0 -71846-4 0  9996
2 48221  87.8922  62.1187 0001867  88.9211 271.2133 13.14503405160812
ONEWEB-0192             
1 48222U 21031N   24233.51785859  .00000216  00000+0  54892-3 0  9996
2 48222  87.8923  62.1202 0001645  90.8154 269.3164 13.14503053160736
ONEWEB-0219             
1 48223U 21031P   24233.57336977  .00000010  00000+0 -86914-5 0  9991
2 48223  87.8921  62.0830 0001893  91.5953 268.5394 13.14502852160935
ONEWEB-0202             
1 48224U 21031Q   24233.55432871 -.00000195  00000+0 -56116-3 0  9994
2 48224  87.8923  62.1050 0001787 117.1563 242.9749 13.14503610160918
ONEWEB-0204             
1 48225U 21031R   24233.58842903  .00000233  00000+0  59449-3 0  9992
2 48225  87.8920  62.1107 0001959  78.6195 281.5155 13.14502759160814
ONEWEB-0205             
1 48226U 21031S   24233.56383567 -.00000355  00000+0 -99290-3 0  9992
2 48226  87.8919  62.0864 0001873  93.5418 266.5926 13.14502818160827
ONEWEB-0206             
1 48227U 21031T   24233.53687286 -.00000159  00000+0 -46471-3 0  9990
2 48227  87.8919  62.0798 0001941  89.3006 270.8346 13.14499746160779
ONEWEB-0182             
1 48228U 21031U   24233.53213477  .00000096  00000+0  22477-3 0  9996
2 48228  87.8924  62.1107 0001824  82.3644 277.7693 13.14502265160987
ONEWEB-0186             
1 48229U 21031V   24233.61935072 -.00000114  00000+0 -34240-3 0  9992
2 48229  87.8923  62.0566 0001714  89.6236 270.5090 13.14503561160948
ONEWEB-0181             
1 48230U 21031W   24233.59715135  .00000282  00000+0  72592-3 0  9993
2 48230  87.8922  62.1312 0001731  95.2412 264.8915 13.14502229160792
ONEWEB-0188             
1 48231U 21031X   24233.55908432 -.00000409  00000+0 -11370-2 0  9993
2 48231  87.8920  62.1334 0001819  89.7128 270.4210 13.14501524160691
ONEWEB-0220             
1 48232U 21031Y   24233.59873542  .00000245  00000+0  62742-3 0  9997
2 48232  87.8916  62.0867 0002032  93.5019 266.6343 13.14502721160961
ONEWEB-0165             
1 48233U 21031Z   24233.55116123 -.00000199  00000+0 -57205-3 0  9997
2 48233  87.8922  62.1168 0001766  93.6513 266.4819 13.14502049160911
ONEWEB-0199             
1 48234U 21031AA  24233.53530321  .00000067  00000+0  14539-3 0  9991
2 48234  87.8921  62.0886 0001578  83.1082 277.0227 13.14503711160810
ONEWEB-0203             
1 48235U 21031AB  24233.60190630  .00000174  00000+0  43375-3 0  9994
2 48235  87.8922  62.0772 0001241  90.0447 270.0825 13.14503034160832
ONEWEB-0197             
1 48236U 21031AC  24233.57732891  .00000098  00000+0  23072-3 0  9999
2 48236  87.8920  62.0909 0001959  80.6590 279.4761 13.14503025160745
ONEWEB-0194             
1 48237U 21031AD  24233.55591664 -.00000232  00000+0 -66014-3 0  9994
2 48237  87.8921  62.0887 0001489  84.9481 275.1818 13.14503399160915
ONEWEB-0193             
1 48238U 21031AE  24233.57177590 -.00000129  00000+0 -38162-3 0  9993
2 48238  87.8922  62.0938 0001595  91.8971 268.2342 13.14503078160866
ONEWEB-0191             
1 48239U 21031AF  24233.58287390  .00000148  00000+0  36386-3 0  9990
2 48239  87.8920  62.0733 0001641  91.5402 268.5916 13.14501217160724
ONEWEB-0195             
1 48240U 21031AG  24233.55988355 -.00000185  00000+0 -53307-3 0  9993
2 48240  87.8919  62.0766 0001870 101.7954 258.3385 13.14502975160707
ONEWEB-0201             
1 48241U 21031AH  24233.54878135 -.00000162  00000+0 -47103-3 0  9999
2 48241  87.8924  62.1155 0001755  92.0701 268.0630 13.14501877160937
ONEWEB-0207             
1 48242U 21031AJ  24233.60428670  .00000120  00000+0  28893-3 0  9999
2 48242  87.8923  62.0696 0001946  84.9676 275.1676 13.14503180160858
